JILIN-1                 
1 40961U 15057D   26198.94853722  .00000363  00000+0  56656-4 0  9997
2 40961  97.6521 196.7904 0017464 158.1701 202.0258 14.78203730580156
JILIN-1 03              
1 41914U 17002B   26198.98111040  .00007905  00000+0  18554-3 0  9995
2 41914  97.1952 205.6471 0007743  71.8953 288.3137 15.42275349526606
JILIN-1 04              
1 43022U 17074A   26198.95866915  .00007943  00000+0  18114-3 0  9995
2 43022  97.4880 309.4116 0005222  93.2229 266.9616 15.43177539479013
JILIN-1 05              
1 43023U 17074B   26198.90814225  .00004435  00000+0  13593-3 0  9997
2 43023  97.4883 305.4901 0006550 117.2074 242.9837 15.34310500478717
JILIN-1 06              
1 43024U 17074C   26198.94979527  .00003449  00000+0  10719-3 0  9990
2 43024  97.4808 302.5003 0008240 125.9304 234.2704 15.34015237478554
JILIN-1 07              
1 43159U 18008E   26198.92788765  .00004860  00000+0  14450-3 0  9991
2 43159  97.1765 218.0455 0006492 316.1078  43.9649 15.35191012469711
JILIN-1 08              
1 43160U 18008F   26198.94998737  .00003193  00000+0  99286-4 0  9996
2 43160  97.1802 217.3483 0004981 341.4275  18.6786 15.34028228469661
JILIN-1 09              
1 43943U 19005B   26198.91031219  .00002276  00000+0  10655-3 0  9996
2 43943  97.4745 293.6163 0002078  29.9258 330.2096 15.20754021413810
JILIN-1 10              
1 43946U 19005E   26198.94820418  .00003100  00000+0  12326-3 0  9993
2 43946  97.4798 297.7606 0008832 160.7990 199.3582 15.26024251414006
