{"fetched_at":"2026-07-18T06:28:13.985Z","source":"https://celestrak.org/NORAD/elements/gp.php?NAME=JILIN&FORMAT=JSON","constellation":"jilin-1-early","records":[{"OBJECT_NAME":"JILIN-1","OBJECT_ID":"2015-057D","EPOCH":"2026-07-17T22:45:53.615808","CLASSIFICATION_TYPE":"U","MEAN_MOTION":14.7820373,"ECCENTRICITY":0.00174648,"INCLINATION":97.6521,"RA_OF_ASC_NODE":196.7904,"ARG_OF_PERICENTER":158.1701,"MEAN_ANOMALY":202.0258,"EPHEMERIS_TYPE":0,"NORAD_CAT_ID":40961,"ELEMENT_SET_NO":999,"REV_AT_EPOCH":58015,"BSTAR":0.000056655983,"MEAN_MOTION_DOT":0.00000363,"MEAN_MOTION_DDOT":0},{"OBJECT_NAME":"JILIN-1 03","OBJECT_ID":"2017-002B","EPOCH":"2026-07-17T23:32:47.938560","CLASSIFICATION_TYPE":"U","MEAN_MOTION":15.42275349,"ECCENTRICITY":0.00077434,"INCLINATION":97.1952,"RA_OF_ASC_NODE":205.6471,"ARG_OF_PERICENTER":71.8953,"MEAN_ANOMALY":288.3137,"EPHEMERIS_TYPE":0,"NORAD_CAT_ID":41914,"ELEMENT_SET_NO":999,"REV_AT_EPOCH":52660,"BSTAR":0.00018554475,"MEAN_MOTION_DOT":0.00007905,"MEAN_MOTION_DDOT":0},{"OBJECT_NAME":"JILIN-1 04","OBJECT_ID":"2017-074A","EPOCH":"2026-07-17T23:00:29.014560","CLASSIFICATION_TYPE":"U","MEAN_MOTION":15.43177539,"ECCENTRICITY":0.00052224,"INCLINATION":97.488,"RA_OF_ASC_NODE":309.4116,"ARG_OF_PERICENTER":93.2229,"MEAN_ANOMALY":266.9616,"EPHEMERIS_TYPE":0,"NORAD_CAT_ID":43022,"ELEMENT_SET_NO":999,"REV_AT_EPOCH":47901,"BSTAR":0.00018114357,"MEAN_MOTION_DOT":0.00007943,"MEAN_MOTION_DDOT":0},{"OBJECT_NAME":"JILIN-1 05","OBJECT_ID":"2017-074B","EPOCH":"2026-07-17T21:47:43.490400","CLASSIFICATION_TYPE":"U","MEAN_MOTION":15.343105,"ECCENTRICITY":0.00065505,"INCLINATION":97.4883,"RA_OF_ASC_NODE":305.4901,"ARG_OF_PERICENTER":117.2074,"MEAN_ANOMALY":242.9837,"EPHEMERIS_TYPE":0,"NORAD_CAT_ID":43023,"ELEMENT_SET_NO":999,"REV_AT_EPOCH":47871,"BSTAR":0.00013592733,"MEAN_MOTION_DOT":0.00004435,"MEAN_MOTION_DDOT":0},{"OBJECT_NAME":"JILIN-1 06","OBJECT_ID":"2017-074C","EPOCH":"2026-07-17T22:47:42.311328","CLASSIFICATION_TYPE":"U","MEAN_MOTION":15.34015237,"ECCENTRICITY":0.000824,"INCLINATION":97.4808,"RA_OF_ASC_NODE":302.5003,"ARG_OF_PERICENTER":125.9304,"MEAN_ANOMALY":234.2704,"EPHEMERIS_TYPE":0,"NORAD_CAT_ID":43024,"ELEMENT_SET_NO":999,"REV_AT_EPOCH":47855,"BSTAR":0.00010719469,"MEAN_MOTION_DOT":0.00003449,"MEAN_MOTION_DDOT":0},{"OBJECT_NAME":"JILIN-1 07","OBJECT_ID":"2018-008E","EPOCH":"2026-07-17T22:16:09.492960","CLASSIFICATION_TYPE":"U","MEAN_MOTION":15.35191012,"ECCENTRICITY":0.00064925,"INCLINATION":97.1765,"RA_OF_ASC_NODE":218.0455,"ARG_OF_PERICENTER":316.1078,"MEAN_ANOMALY":43.9649,"EPHEMERIS_TYPE":0,"NORAD_CAT_ID":43159,"ELEMENT_SET_NO":999,"REV_AT_EPOCH":46971,"BSTAR":0.00014449888,"MEAN_MOTION_DOT":0.0000486,"MEAN_MOTION_DDOT":0},{"OBJECT_NAME":"JILIN-1 08","OBJECT_ID":"2018-008F","EPOCH":"2026-07-17T22:47:58.908768","CLASSIFICATION_TYPE":"U","MEAN_MOTION":15.34028228,"ECCENTRICITY":0.00049815,"INCLINATION":97.1802,"RA_OF_ASC_NODE":217.3483,"ARG_OF_PERICENTER":341.4275,"MEAN_ANOMALY":18.6786,"EPHEMERIS_TYPE":0,"NORAD_CAT_ID":43160,"ELEMENT_SET_NO":999,"REV_AT_EPOCH":46966,"BSTAR":0.000099286231,"MEAN_MOTION_DOT":0.00003193,"MEAN_MOTION_DDOT":0},{"OBJECT_NAME":"JILIN-1 09","OBJECT_ID":"2019-005B","EPOCH":"2026-07-17T21:50:50.973216","CLASSIFICATION_TYPE":"U","MEAN_MOTION":15.20754021,"ECCENTRICITY":0.0002078,"INCLINATION":97.4745,"RA_OF_ASC_NODE":293.6163,"ARG_OF_PERICENTER":29.9258,"MEAN_ANOMALY":330.2096,"EPHEMERIS_TYPE":0,"NORAD_CAT_ID":43943,"ELEMENT_SET_NO":999,"REV_AT_EPOCH":41381,"BSTAR":0.00010654598,"MEAN_MOTION_DOT":0.00002276,"MEAN_MOTION_DDOT":0},{"OBJECT_NAME":"JILIN-1 10","OBJECT_ID":"2019-005E","EPOCH":"2026-07-17T22:45:24.841152","CLASSIFICATION_TYPE":"U","MEAN_MOTION":15.26024251,"ECCENTRICITY":0.0008832,"INCLINATION":97.4798,"RA_OF_ASC_NODE":297.7606,"ARG_OF_PERICENTER":160.799,"MEAN_ANOMALY":199.3582,"EPHEMERIS_TYPE":0,"NORAD_CAT_ID":43946,"ELEMENT_SET_NO":999,"REV_AT_EPOCH":41400,"BSTAR":0.00012325975,"MEAN_MOTION_DOT":0.000031,"MEAN_MOTION_DDOT":0}]}
